{
  "type": "FeatureCollection",
  "features": [
    {
      "type": "Feature",
      "properties": {
        "norad_id": 33886,
        "name": "IRIDIUM 33 DEB",
        "group": "iridium-33-debris",
        "lat": -13.332316428414181,
        "lon": 69.07440141279949,
        "alt_km": 774.6846140782027,
        "timestamp": "2025-12-06T07:31:40.620668+00:00",
        "meta_object_name": "IRIDIUM 33 DEB",
        "meta_object_id": "1997-051BF",
        "meta_epoch": "2025-12-05T06:45:14.644800",
        "meta_mean_motion": 14.36037798,
        "meta_eccentricity": 0.00120662,
        "meta_inclination": 86.3832,
        "meta_ra_of_asc_node": 70.3676,
        "meta_arg_of_pericenter": 270.3653,
        "meta_mean_anomaly": 143.1973,
        "meta_ephemeris_type": 0,
        "meta_classification_type": "U",
        "meta_norad_cat_id": 33886,
        "meta_element_set_no": 999,
        "meta_rev_at_epoch": 87945,
        "meta_bstar": 0.00038937053,
        "meta_mean_motion_dot": 1.152e-05,
        "meta_mean_motion_ddot": 0,
        "tle_line1": "1 33886U 97051BF  25339.28141950  .00001152  00000+0  38937-3 0  9993",
        "tle_line2": "2 33886  86.3832  70.3676 0012066 270.3653 143.1973 14.36037798879459"
      },
      "geometry": {
        "type": "Point",
        "coordinates": [
          69.07440141279949,
          -13.332316428414181
        ]
      }
    },
    {
      "type": "Feature",
      "properties": {
        "norad_id": 33887,
        "name": "IRIDIUM 33 DEB",
        "group": "iridium-33-debris",
        "lat": -75.38646401735066,
        "lon": -159.48789360244905,
        "alt_km": 772.2456035747728,
        "timestamp": "2025-12-06T07:31:40.620679+00:00",
        "meta_object_name": "IRIDIUM 33 DEB",
        "meta_object_id": "1997-051BG",
        "meta_epoch": "2025-12-05T02:10:58.097280",
        "meta_mean_motion": 14.37210895,
        "meta_eccentricity": 0.00040537,
        "meta_inclination": 86.3049,
        "meta_ra_of_asc_node": 6.6883,
        "meta_arg_of_pericenter": 263.1324,
        "meta_mean_anomaly": 150.4166,
        "meta_ephemeris_type": 0,
        "meta_classification_type": "U",
        "meta_norad_cat_id": 33887,
        "meta_element_set_no": 999,
        "meta_rev_at_epoch": 88055,
        "meta_bstar": 0.00027532923,
        "meta_mean_motion_dot": 8.39e-06,
        "meta_mean_motion_ddot": 0,
        "tle_line1": "1 33887U 97051BG  25339.09095020  .00000839  00000+0  27533-3 0  9990",
        "tle_line2": "2 33887  86.3049   6.6883 0004053 263.1324 150.4166 14.37210895880554"
      },
      "geometry": {
        "type": "Point",
        "coordinates": [
          -159.48789360244905,
          -75.38646401735066
        ]
      }
    },
    {
      "type": "Feature",
      "properties": {
        "norad_id": 33953,
        "name": "IRIDIUM 33 DEB",
        "group": "iridium-33-debris",
        "lat": 53.80051772158317,
        "lon": 61.52349051986072,
        "alt_km": 698.6996753127305,
        "timestamp": "2025-12-06T07:31:40.620690+00:00",
        "meta_object_name": "IRIDIUM 33 DEB",
        "meta_object_id": "1997-051BN",
        "meta_epoch": "2025-12-05T05:08:31.951680",
        "meta_mean_motion": 14.55204828,
        "meta_eccentricity": 0.00185403,
        "meta_inclination": 86.3853,
        "meta_ra_of_asc_node": 57.0454,
        "meta_arg_of_pericenter": 125.7223,
        "meta_mean_anomaly": 292.6606,
        "meta_ephemeris_type": 0,
        "meta_classification_type": "U",
        "meta_norad_cat_id": 33953,
        "meta_element_set_no": 999,
        "meta_rev_at_epoch": 88194,
        "meta_bstar": 0.0025544132,
        "meta_mean_motion_dot": 0.00011099,
        "meta_mean_motion_ddot": 0,
        "tle_line1": "1 33953U 97051BN  25339.21425870  .00011099  00000+0  25544-2 0  9997",
        "tle_line2": "2 33953  86.3853  57.0454 0018540 125.7223 292.6606 14.55204828881943"
      },
      "geometry": {
        "type": "Point",
        "coordinates": [
          61.52349051986072,
          53.80051772158317
        ]
      }
    },
    {
      "type": "Feature",
      "properties": {
        "norad_id": 33960,
        "name": "IRIDIUM 33 DEB",
        "group": "iridium-33-debris",
        "lat": -73.16941213306175,
        "lon": 125.05307845644697,
        "alt_km": 626.9090167208069,
        "timestamp": "2025-12-06T07:31:40.620700+00:00",
        "meta_object_name": "IRIDIUM 33 DEB",
        "meta_object_id": "1997-051BV",
        "meta_epoch": "2025-12-04T20:40:23.161152",
        "meta_mean_motion": 14.84544482,
        "meta_eccentricity": 0.0007097,
        "meta_inclination": 86.2533,
        "meta_ra_of_asc_node": 293.2261,
        "meta_arg_of_pericenter": 73.4726,
        "meta_mean_anomaly": 343.2851,
        "meta_ephemeris_type": 0,
        "meta_classification_type": "U",
        "meta_norad_cat_id": 33960,
        "meta_element_set_no": 999,
        "meta_rev_at_epoch": 88750,
        "meta_bstar": 0.00599,
        "meta_mean_motion_dot": 0.00050871,
        "meta_mean_motion_ddot": 0,
        "tle_line1": "1 33960U 97051BV  25338.86137918  .00050871  00000+0  59900-2 0  9992",
        "tle_line2": "2 33960  86.2533 293.2261 0007097  73.4726 343.2851 14.84544482887505"
      },
      "geometry": {
        "type": "Point",
        "coordinates": [
          125.05307845644697,
          -73.16941213306175
        ]
      }
    },
    {
      "type": "Feature",
      "properties": {
        "norad_id": 33966,
        "name": "IRIDIUM 33 DEB",
        "group": "iridium-33-debris",
        "lat": -47.94183543336979,
        "lon": 44.77656614225995,
        "alt_km": 734.8963382288839,
        "timestamp": "2025-12-06T07:31:40.620711+00:00",
        "meta_object_name": "IRIDIUM 33 DEB",
        "meta_object_id": "1997-051CB",
        "meta_epoch": "2025-12-05T05:29:23.839296",
        "meta_mean_motion": 14.49544944,
        "meta_eccentricity": 0.0006567,
        "meta_inclination": 86.3933,
        "meta_ra_of_asc_node": 49.2505,
        "meta_arg_of_pericenter": 214.8574,
        "meta_mean_anomaly": 199.2103,
        "meta_ephemeris_type": 0,
        "meta_classification_type": "U",
        "meta_norad_cat_id": 33966,
        "meta_element_set_no": 999,
        "meta_rev_at_epoch": 88333,
        "meta_bstar": 0.0011929971,
        "meta_mean_motion_dot": 4.595e-05,
        "meta_mean_motion_ddot": 0,
        "tle_line1": "1 33966U 97051CB  25339.22874814  .00004595  00000+0  11930-2 0  9995",
        "tle_line2": "2 33966  86.3933  49.2505 0006567 214.8574 199.2103 14.49544944883339"
      },
      "geometry": {
        "type": "Point",
        "coordinates": [
          44.77656614225995,
          -47.94183543336979
        ]
      }
    },
    {
      "type": "Feature",
      "properties": {
        "norad_id": 34071,
        "name": "IRIDIUM 33 DEB",
        "group": "iridium-33-debris",
        "lat": 21.08648520077368,
        "lon": 22.033829263026536,
        "alt_km": 729.0340682823089,
        "timestamp": "2025-12-06T07:31:40.620721+00:00",
        "meta_object_name": "IRIDIUM 33 DEB",
        "meta_object_id": "1997-051CE",
        "meta_epoch": "2025-12-05T03:15:48.271968",
        "meta_mean_motion": 14.49413279,
        "meta_eccentricity": 0.00095852,
        "meta_inclination": 86.3462,
        "meta_ra_of_asc_node": 21.1335,
        "meta_arg_of_pericenter": 128.1899,
        "meta_mean_anomaly": 232.017,
        "meta_ephemeris_type": 0,
        "meta_classification_type": "U",
        "meta_norad_cat_id": 34071,
        "meta_element_set_no": 999,
        "meta_rev_at_epoch": 88224,
        "meta_bstar": 0.001361503,
        "meta_mean_motion_dot": 5.229e-05,
        "meta_mean_motion_ddot": 0,
        "tle_line1": "1 34071U 97051CE  25339.13597537  .00005229  00000+0  13615-2 0  9994",
        "tle_line2": "2 34071  86.3462  21.1335 0009585 128.1899 232.0170 14.49413279882249"
      },
      "geometry": {
        "type": "Point",
        "coordinates": [
          22.033829263026536,
          21.08648520077368
        ]
      }
    },
    {
      "type": "Feature",
      "properties": {
        "norad_id": 34077,
        "name": "IRIDIUM 33 DEB",
        "group": "iridium-33-debris",
        "lat": -49.784942569382835,
        "lon": -121.37630703416616,
        "alt_km": 692.6067811037892,
        "timestamp": "2025-12-06T07:31:40.620731+00:00",
        "meta_object_name": "IRIDIUM 33 DEB",
        "meta_object_id": "1997-051CL",
        "meta_epoch": "2025-12-05T04:31:02.326368",
        "meta_mean_motion": 14.64651198,
        "meta_eccentricity": 0.00108445,
        "meta_inclination": 86.3871,
        "meta_ra_of_asc_node": 54.8335,
        "meta_arg_of_pericenter": 63.1605,
        "meta_mean_anomaly": 356.2545,
        "meta_ephemeris_type": 0,
        "meta_classification_type": "U",
        "meta_norad_cat_id": 34077,
        "meta_element_set_no": 999,
        "meta_rev_at_epoch": 88222,
        "meta_bstar": 0.0034104221,
        "meta_mean_motion_dot": 0.00018195,
        "meta_mean_motion_ddot": 0,
        "tle_line1": "1 34077U 97051CL  25339.18822137  .00018195  00000+0  34104-2 0  9994",
        "tle_line2": "2 34077  86.3871  54.8335 0010844  63.1605 356.2545 14.64651198882229"
      },
      "geometry": {
        "type": "Point",
        "coordinates": [
          -121.37630703416616,
          -49.784942569382835
        ]
      }
    }
  ]
}